{"type": "FeatureCollection", "features": [ {"type": "Feature", "properties": {"norad_id": 41785, "name": "ALSAT 1B", "group": "resource", "lat": -63.31418656904083, "lon": 176.9634635859299, "alt_km": 669.117975177599, "timestamp": "2025-12-27T14:26:30.174011+00:00", "meta": {"OBJECT_NAME": "ALSAT 1B", "OBJECT_ID": "2016-059C", "EPOCH": "2025-12-27T06:48:36.846720", "MEAN_MOTION": 14.72091932, "ECCENTRICITY": 0.00106975, "INCLINATION": 97.7813, "RA_OF_ASC_NODE": 12.4454, "ARG_OF_PERICENTER": 62.7115, "MEAN_ANOMALY": 297.5181, "EPHEMERIS_TYPE": 0, "CLASSIFICATION_TYPE": "U", "NORAD_CAT_ID": 41785, "ELEMENT_SET_NO": 999, "REV_AT_EPOCH": 49528, "BSTAR": 0.00015075908, "MEAN_MOTION_DOT": 9.02e-06, "MEAN_MOTION_DDOT": 0}, "tle": {"line1": "1 41785U 16059C   25361.28375980  .00000902  00000+0  15076-3 0  9997", "line2": "2 41785  97.7813  12.4454 0010697  62.7115 297.5181 14.72091932495286"}}, "geometry": {"type": "Point", "coordinates": [176.9634635859299, -63.31418656904083]}}, {"type": "Feature", "properties": {"norad_id": 41787, "name": "PATHFINDER 1", "group": "resource", "lat": 68.0109131481672, "lon": -16.195626946727042, "alt_km": 645.6296089149273, "timestamp": "2025-12-27T14:26:30.174021+00:00", "meta": {"OBJECT_NAME": "PATHFINDER 1", "OBJECT_ID": "2016-059E", "EPOCH": "2025-12-27T05:56:43.715616", "MEAN_MOTION": 14.67347486, "ECCENTRICITY": 0.00294814, "INCLINATION": 97.814, "RA_OF_ASC_NODE": 3.3481, "ARG_OF_PERICENTER": 36.8288, "MEAN_ANOMALY": 323.4935, "EPHEMERIS_TYPE": 0, "CLASSIFICATION_TYPE": "U", "NORAD_CAT_ID": 41787, "ELEMENT_SET_NO": 999, "REV_AT_EPOCH": 49449, "BSTAR": 0.00018977005, "MEAN_MOTION_DOT": 1.032e-05, "MEAN_MOTION_DDOT": 0}, "tle": {"line1": "1 41787U 16059E   25361.24772819  .00001032  00000+0  18977-3 0  9995", "line2": "2 41787  97.8140   3.3481 0029481  36.8288 323.4935 14.67347486494495"}}, "geometry": {"type": "Point", "coordinates": [-16.195626946727042, 68.0109131481672]}}, {"type": "Feature", "properties": {"norad_id": 41790, "name": "SCATSAT 1", "group": "resource", "lat": -36.811017573823165, "lon": 64.60894524758143, "alt_km": 657.4948805583927, "timestamp": "2025-12-27T14:26:30.174031+00:00", "meta": {"OBJECT_NAME": "SCATSAT 1", "OBJECT_ID": "2016-059H", "EPOCH": "2025-12-27T03:14:38.784768", "MEAN_MOTION": 14.78983356, "ECCENTRICITY": 0.00564381, "INCLINATION": 98.1445, "RA_OF_ASC_NODE": 57.984, "ARG_OF_PERICENTER": 82.6627, "MEAN_ANOMALY": 278.0993, "EPHEMERIS_TYPE": 0, "CLASSIFICATION_TYPE": "U", "NORAD_CAT_ID": 41790, "ELEMENT_SET_NO": 999, "REV_AT_EPOCH": 7615, "BSTAR": 0.00023346055, "MEAN_MOTION_DOT": 1.714e-05, "MEAN_MOTION_DDOT": 0}, "tle": {"line1": "1 41790U 16059H   25361.13517112  .00001714  00000+0  23346-3 0  9993", "line2": "2 41790  98.1445  57.9840 0056438  82.6627 278.0993 14.78983356 76155"}}, "geometry": {"type": "Point", "coordinates": [64.60894524758143, -36.811017573823165]}}, {"type": "Feature", "properties": {"norad_id": 41875, "name": "GOKTURK 1A", "group": "resource", "lat": -79.86722488898077, "lon": 20.535270347199265, "alt_km": 692.4011409558998, "timestamp": "2025-12-27T14:26:30.174042+00:00", "meta": {"OBJECT_NAME": "GOKTURK 1A", "OBJECT_ID": "2016-073A", "EPOCH": "2025-12-27T06:40:19.262208", "MEAN_MOTION": 14.62796521, "ECCENTRICITY": 0.00012793, "INCLINATION": 98.1422, "RA_OF_ASC_NODE": 253.4496, "ARG_OF_PERICENTER": 81.3648, "MEAN_ANOMALY": 278.7698, "EPHEMERIS_TYPE": 0, "CLASSIFICATION_TYPE": "U", "NORAD_CAT_ID": 41875, "ELEMENT_SET_NO": 999, "REV_AT_EPOCH": 48369, "BSTAR": 0.00012269362, "MEAN_MOTION_DOT": 5.79e-06, "MEAN_MOTION_DDOT": 0}, "tle": {"line1": "1 41875U 16073A   25361.27800072  .00000579  00000+0  12269-3 0  9998", "line2": "2 41875  98.1422 253.4496 0001279  81.3648 278.7698 14.62796521483695"}}, "geometry": {"type": "Point", "coordinates": [20.535270347199265, -79.86722488898077]}}, {"type": "Feature", "properties": {"norad_id": 41877, "name": "RESOURCESAT-2A", "group": "resource", "lat": -80.70200803739796, "lon": 141.97295808153225, "alt_km": 827.0431962621742, "timestamp": "2025-12-27T14:26:30.174052+00:00", "meta": {"OBJECT_NAME": "RESOURCESAT-2A", "OBJECT_ID": "2016-074A", "EPOCH": "2025-12-27T08:05:36.375648", "MEAN_MOTION": 14.21606234, "ECCENTRICITY": 0.00017311, "INCLINATION": 98.7732, "RA_OF_ASC_NODE": 71.1069, "ARG_OF_PERICENTER": 193.4557, "MEAN_ANOMALY": 166.6574, "EPHEMERIS_TYPE": 0, "CLASSIFICATION_TYPE": "U", "NORAD_CAT_ID": 41877, "ELEMENT_SET_NO": 999, "REV_AT_EPOCH": 46988, "BSTAR": 0.0001484656, "MEAN_MOTION_DOT": 2.81e-06, "MEAN_MOTION_DDOT": 0}, "tle": {"line1": "1 41877U 16074A   25361.33722657  .00000281  00000+0  14847-3 0  9994", "line2": "2 41877  98.7732  71.1069 0001731 193.4557 166.6574 14.21606234469884"}}, "geometry": {"type": "Point", "coordinates": [141.97295808153225, -80.70200803739796]}}, {"type": "Feature", "properties": {"norad_id": 41948, "name": "CARTOSAT-2D", "group": "resource", "lat": 80.72102255965181, "lon": -68.04965146960902, "alt_km": 497.2080367549461, "timestamp": "2025-12-27T14:26:30.174062+00:00", "meta": {"OBJECT_NAME": "CARTOSAT-2D", "OBJECT_ID": "2017-008A", "EPOCH": "2025-12-27T07:41:59.228160", "MEAN_MOTION": 15.1921198, "ECCENTRICITY": 0.00054496, "INCLINATION": 97.4365, "RA_OF_ASC_NODE": 58.5948, "ARG_OF_PERICENTER": 113.1455, "MEAN_ANOMALY": 247.0354, "EPHEMERIS_TYPE": 0, "CLASSIFICATION_TYPE": "U", "NORAD_CAT_ID": 41948, "ELEMENT_SET_NO": 999, "REV_AT_EPOCH": 49148, "BSTAR": 0.00030940528, "MEAN_MOTION_DOT": 6.449e-05, "MEAN_MOTION_DDOT": 0}, "tle": {"line1": "1 41948U 17008A   25361.32082440  .00006449  00000+0  30941-3 0  9994", "line2": "2 41948  97.4365  58.5948 0005449 113.1455 247.0354 15.19211980491481"}}, "geometry": {"type": "Point", "coordinates": [-68.04965146960902, 80.72102255965181]}}, {"type": "Feature", "properties": {"norad_id": 42063, "name": "SENTINEL-2B", "group": "resource", "lat": 13.37518047538321, "lon": 71.7830095980843, "alt_km": 789.8345810976107, "timestamp": "2025-12-27T14:26:30.174071+00:00", "meta": {"OBJECT_NAME": "SENTINEL-2B", "OBJECT_ID": "2017-013A", "EPOCH": "2025-12-27T05:59:13.415712", "MEAN_MOTION": 14.30817062, "ECCENTRICITY": 0.00011692, "INCLINATION": 98.5694, "RA_OF_ASC_NODE": 73.4905, "ARG_OF_PERICENTER": 90.5418, "MEAN_ANOMALY": 269.5899, "EPHEMERIS_TYPE": 0, "CLASSIFICATION_TYPE": "U", "NORAD_CAT_ID": 42063, "ELEMENT_SET_NO": 999, "REV_AT_EPOCH": 46005, "BSTAR": 0.00011196632, "MEAN_MOTION_DOT": 2.5e-06, "MEAN_MOTION_DDOT": 0}, "tle": {"line1": "1 42063U 17013A   25361.24946083  .00000250  00000+0  11197-3 0  9998", "line2": "2 42063  98.5694  73.4905 0001169  90.5418 269.5899 14.30817062460055"}}, "geometry": {"type": "Point", "coordinates": [71.7830095980843, 13.37518047538321]}}, {"type": "Feature", "properties": {"norad_id": 42767, "name": "CARTOSAT-2E", "group": "resource", "lat": 4.7169953045996245, "lon": 58.3741626452551, "alt_km": 512.4442929160159, "timestamp": "2025-12-27T14:26:30.174081+00:00", "meta": {"OBJECT_NAME": "CARTOSAT-2E", "OBJECT_ID": "2017-036C", "EPOCH": "2025-12-27T08:05:51.926784", "MEAN_MOTION": 15.1921916, "ECCENTRICITY": 0.00027977, "INCLINATION": 97.4535, "RA_OF_ASC_NODE": 58.7323, "ARG_OF_PERICENTER": 165.1861, "MEAN_ANOMALY": 194.9456, "EPHEMERIS_TYPE": 0, "CLASSIFICATION_TYPE": "U", "NORAD_CAT_ID": 42767, "ELEMENT_SET_NO": 999, "REV_AT_EPOCH": 47205, "BSTAR": 0.00028478774, "MEAN_MOTION_DOT": 5.93e-05, "MEAN_MOTION_DDOT": 0}, "tle": {"line1": "1 42767U 17036C   25361.33740656  .00005930  00000+0  28479-3 0  9993", "line2": "2 42767  97.4535  58.7323 0002797 165.1861 194.9456 15.19219160472053"}}, "geometry": {"type": "Point", "coordinates": [58.3741626452551, 4.7169953045996245]}}, {"type": "Feature", "properties": {"norad_id": 42920, "name": "FORMOSAT-5", "group": "resource", "lat": 4.367003274585813, "lon": 74.98625764233905, "alt_km": 728.3441244794712, "timestamp": "2025-12-27T14:26:30.174092+00:00", "meta": {"OBJECT_NAME": "FORMOSAT-5", "OBJECT_ID": "2017-049A", "EPOCH": "2025-12-27T06:08:42.274176", "MEAN_MOTION": 14.50769054, "ECCENTRICITY": 0.00098712, "INCLINATION": 98.2436, "RA_OF_ASC_NODE": 75.282, "ARG_OF_PERICENTER": 251.7911, "MEAN_ANOMALY": 108.2209, "EPHEMERIS_TYPE": 0, "CLASSIFICATION_TYPE": "U", "NORAD_CAT_ID": 42920, "ELEMENT_SET_NO": 999, "REV_AT_EPOCH": 44174, "BSTAR": 8.0326545e-05, "MEAN_MOTION_DOT": 2.72e-06, "MEAN_MOTION_DDOT": 0}, "tle": {"line1": "1 42920U 17049A   25361.25604484  .00000272  00000+0  80327-4 0  9992", "line2": "2 42920  98.2436  75.2820 0009871 251.7911 108.2209 14.50769054441749"}}, "geometry": {"type": "Point", "coordinates": [74.98625764233905, 4.367003274585813]}}, {"type": "Feature", "properties": {"norad_id": 42969, "name": "SENTINEL-5P", "group": "resource", "lat": 11.825790997312865, "lon": 121.90979700501458, "alt_km": 828.0634854837017, "timestamp": "2025-12-27T14:26:30.174103+00:00", "meta": {"OBJECT_NAME": "SENTINEL-5P", "OBJECT_ID": "2017-064A", "EPOCH": "2025-12-27T03:30:12.056832", "MEAN_MOTION": 14.19521182, "ECCENTRICITY": 0.0001064, "INCLINATION": 98.7803, "RA_OF_ASC_NODE": 299.6036, "ARG_OF_PERICENTER": 91.1761, "MEAN_ANOMALY": 268.9537, "EPHEMERIS_TYPE": 0, "CLASSIFICATION_TYPE": "U", "NORAD_CAT_ID": 42969, "ELEMENT_SET_NO": 999, "REV_AT_EPOCH": 42515, "BSTAR": 7.5239098e-05, "MEAN_MOTION_DOT": 1.14e-06, "MEAN_MOTION_DDOT": 0}, "tle": {"line1": "1 42969U 17064A   25361.14597288  .00000114  00000+0  75239-4 0  9994", "line2": "2 42969  98.7803 299.6036 0001064  91.1761 268.9537 14.19521182425159"}}, "geometry": {"type": "Point", "coordinates": [121.90979700501458, 11.825790997312865]}}]}